# From MPC106342
C/1995 O1 (Hale-Bopp),e,89.2784,282.7524,130.4135,177.1188,0.0004181,0.99497170,0.0000,03/29.6439/1997,2000,g -2.0,4.0
# From NK 1615
P/1996 R2 (Lagerkvist),e,2.6009,40.0091,333.3857,3.774637,0.1343975,0.31455412,174.0721,08/31.0/2022,2000,g 11.5,4.0
# From MPC 75703
P/1998 VS24 (LINEAR),e,5.0266,159.0402,244.6162,4.525670,0.1023717,0.24307061,172.4140,08/31.0/2022,2000,g 13.0,2.0
# From NK 731
P/1999 RO28 (LONEOS),e,7.5660,137.8754,231.2909,3.426527,0.1553899,0.67251540,180.4262,08/31.0/2022,2000,g 20.0,2.0
# From MPC 75704
P/1999 XN120 (Catalina),e,5.0298,285.2963,161.6978,4.179003,0.1153706,0.21036655,220.3601,08/31.0/2022,2000,g 13.5,2.0
# From NK 744
P/2000 R2 (LINEAR),e,11.6870,160.2855,176.5848,3.467574,0.1526390,0.53146703,178.6134,08/31.0/2022,2000,g 18.0,4.0
# From MPC 43019
P/2001 H5 (NEAT),e,8.3671,328.6847,224.7515,6.096134,0.0654821,0.59820096,164.5282,08/31.0/2022,2000,g 12.0,4.0
# From MPC 75704
P/2001 Q6 (NEAT),e,56.9115,22.1844,42.9362,7.958025,0.0439032,0.82331513,336.0105,08/31.0/2022,2000,g 13.5,4.0
# From MPC 47727
P/2002 EJ57 (LINEAR),e,4.9773,330.3112,167.2952,6.464125,0.0599707,0.59234786,92.0930,08/31.0/2022,2000,g 12.5,4.0
# From MPC109588
P/2002 T6 (NEAT-LINEAR),e,10.8505,206.0790,219.5749,7.723996,0.0459136,0.56226968,328.3612,08/31.0/2022,2000,g 10.5,4.0
# From MPC 75007
C/2002 VQ94 (LINEAR),e,70.6850,35.1341,99.9985,184.2919,0.0003940,0.96304844,2.3864,08/31.0/2022,2000,g  9.5,2.0
# From MPC 50354
P/2003 F2 (NEAT),e,11.6104,358.9973,192.2585,6.502218,0.0594445,0.54145223,60.7969,08/31.0/2022,2000,g 16.5,2.0
# From MPC 50139
P/2003 QX29 (NEAT),e,11.3929,264.5199,37.6491,8.016966,0.0434199,0.47262317,313.4791,08/31.0/2022,2000,g  8.5,4.0
# From MPC105235
P/2003 T12 (SOHO),e,11.0226,174.5864,219.7470,2.585516,0.2370737,0.77010789,200.5145,08/31.0/2022,2000,g 17.0,4.0
# From MPC 82312
P/2004 A1 (LONEOS),e,10.5517,124.8579,21.1107,7.970167,0.0438029,0.30996397,289.8635,08/31.0/2022,2000,g  6.5,4.0
# From MPC 54558
P/2004 DO29 (Spacewatch-LINEAR),e,14.5315,147.3757,40.5257,7.294400,0.0500288,0.44122370,327.8385,08/31.0/2022,2000,g 13.5,2.0
# From MPC 54823
P/2004 FY140 (LINEAR),e,2.1348,326.7784,242.1417,4.906559,0.0906856,0.16785664,235.9200,08/31.0/2022,2000,g 12.5,2.0
# From MPC 53304
P/2004 R3 (LINEAR-NEAT),e,12.7817,305.3305,37.7110,4.765801,0.0947328,0.25590273,32.6094,08/31.0/2022,2000,g 14.5,4.0
# From MPC 55521
P/2004 V3 (Siding Spring),e,50.4438,356.1300,322.4741,7.131041,0.0517577,0.44598735,336.7621,08/31.0/2022,2000,g 11.5,4.0
# From MPC 75705
P/2004 V5 (LINEAR-Hill),e,19.3420,47.7853,87.5784,7.988458,0.0436526,0.44456774,281.0081,08/31.0/2022,2000,g  8.0,4.0
# From MPC 54164
P/2005 E1 (Tubbiolo),e,4.2633,335.5746,193.9036,7.049160,0.0526621,0.37549885,339.2791,08/31.0/2022,2000,g 10.0,4.0
# From MPC 79019
P/2005 J1 (McNaught),e,31.7412,268.8273,338.9355,3.571737,0.1460108,0.56906591,207.2586,08/31.0/2022,2000,g 16.5,4.0
# From MPC 74246
P/2005 L1 (McNaught),e,7.7328,138.2393,149.9685,3.987501,0.1237807,0.21176757,37.1246,08/31.0/2022,2000,g  9.5,4.0
# From MPC 75706
P/2005 S2 (Skiff),e,3.1356,161.2238,229.3838,8.006297,0.0435067,0.19845723,258.6168,08/31.0/2022,2000,g  7.5,4.0
# From MPC 75706
P/2005 SB216 (LONEOS),e,24.1120,1.1271,83.2552,7.144175,0.0516150,0.46453085,296.3177,08/31.0/2022,2000,g 12.0,2.0
# From MPC 73461
P/2005 T3 (Read),e,6.2237,27.6743,6.6763,7.588102,0.0471525,0.17529820,291.8838,08/31.0/2022,2000,g  9.0,4.0
# From MPC 73461
P/2005 T4 (SWAN),e,160.2644,25.9052,41.8209,9.359521,0.0344210,0.92975084,212.4275,08/31.0/2022,2000,g 15.0,4.0
# From MPC 75706
P/2005 T5 (Broughton),e,21.3775,57.0004,304.6788,7.281743,0.0501593,0.55265851,308.9281,08/31.0/2022,2000,g 11.0,4.0
# From MPC 75707
P/2006 HR30 (Siding Spring),e,31.8552,309.8440,117.3630,7.809196,0.0451642,0.84302653,259.2177,08/31.0/2022,2000,g 11.0,4.0
# From MPC 75707
P/2007 A2 (Christensen),e,26.4858,300.9131,186.6997,6.336352,0.0617938,0.55832322,354.4355,08/31.0/2022,2000,g 13.5,4.0
# From MPC 75707
P/2007 C2 (Catalina),e,8.6087,275.3165,180.1656,6.998130,0.0532391,0.47200959,290.7683,08/31.0/2022,2000,g 10.0,4.0
# From MPC 84315
C/2007 D1 (LINEAR),e,41.5016,171.2348,339.8191,1206,0.0000235,0.99270983,0.0000,06/07.1174/2007,2000,g  3.5,4.0
# From MPC 82314
P/2007 K2 (Gibbs),e,7.6275,188.6343,347.3585,7.274555,0.0502336,0.68304750,280.5136,08/31.0/2022,2000,g 14.0,4.0
# From MPC 60925
P/2007 Q2 (Gilmore),e,10.2027,172.1526,162.8456,5.656956,0.0732537,0.67005478,47.0304,08/31.0/2022,2000,g 16.0,4.0
# From MPC 73462
P/2007 S1 (Zhao),e,5.9614,141.3572,245.2243,3.822058,0.1319041,0.33942299,355.1281,08/31.0/2022,2000,g 13.0,4.0
# From MPC 61994
P/2007 T2 (Kowalski),e,9.7522,3.3775,359.6611,3.045797,0.1854183,0.78566955,277.7499,08/31.0/2022,2000,g 18.5,4.0
# From MPC 75709
P/2008 L2 (Hill),e,25.8682,218.0179,141.2611,6.027492,0.0666038,0.61343471,343.1452,08/31.0/2022,2000,g 12.5,4.0
# From MPC 64114
P/2008 O3 (Boattini),e,32.3268,47.5653,341.1600,8.215996,0.0418518,0.69630717,217.8145,08/31.0/2022,2000,g 13.0,4.0
# From MPC 75710
P/2008 Y3 (McNaught),e,38.7779,262.8511,238.0562,8.047750,0.0431710,0.44577047,216.1439,08/31.0/2022,2000,g  8.5,4.0
# From MPC 75710
P/2009 B1 (Boattini),e,22.2336,297.0763,128.8954,6.737287,0.0563607,0.63553666,281.1041,08/31.0/2022,2000,g 13.0,4.0
# From MPC 66466
C/2009 G1 (STEREO),e,108.5426,120.5423,175.5025,463.3954,0.0000988,0.99754108,0.0000,04/18.1285/2009,2000,g  9.0,4.0
# From MPC 75710
P/2009 O3 (Hill),e,16.2886,183.6852,154.4859,7.767023,0.0455326,0.68781252,220.4807,08/31.0/2022,2000,g 12.5,4.0
# From MPC 68902
P/2009 Q5 (McNaught),e,40.9865,160.2768,209.0964,7.430394,0.0486616,0.60979682,230.3999,08/31.0/2022,2000,g 10.0,4.0
# From MPC112389
P/2009 T2 (La Sagra),e,27.6025,215.8930,216.3271,7.719180,0.0459565,0.76632737,212.6467,08/31.0/2022,2000,g 14.0,4.0
# From MPC105235
P/2009 WX51 (Catalina),e,9.5944,31.5715,118.2567,3.082774,0.1820923,0.73946800,118.9183,08/31.0/2022,2000,g 19.0,2.0
# From MPC 74247
P/2009 Y2 (Kowalski),e,29.9588,262.0402,172.1316,6.549845,0.0587973,0.63669386,268.6018,08/31.0/2022,2000,g 13.0,4.0
# From MPC 75711
P/2010 A3 (Hill),e,14.8163,63.6450,42.2768,6.085875,0.0656477,0.73370771,299.3483,08/31.0/2022,2000,g 14.0,4.0
# From MPC 75008
P/2010 C1 (Scotti),e,9.1263,141.8760,3.4036,7.104811,0.0520445,0.26023246,243.8913,08/31.0/2022,2000,g  9.5,4.0
# From MPC 75008
P/2010 D2 (WISE),e,57.0963,319.8843,119.9393,6.720823,0.0565679,0.45139071,259.6508,08/31.0/2022,2000,g 16.0,4.0
# From MPC 75009
P/2010 E2 (Jarnac),e,15.3847,177.8199,8.3095,8.640261,0.0388073,0.71943180,176.2730,08/31.0/2022,2000,g 14.0,4.0
# From MPC 72851
P/2010 H2 (Vales),e,14.2785,64.1868,128.0165,3.832261,0.1313777,0.19653737,238.8511,08/31.0/2022,2000,g  6.0,4.0
# From MPC 70361
P/2010 H3 (SOHO),e,23.0755,77.0966,26.1455,3.036342,0.1862850,0.98537002,0.0000,02/07.8737/2021,2000,g 20.0,2.0
# From MPC 73463
P/2010 H4 (Scotti),e,2.3178,44.7267,179.3445,6.599297,0.0581377,0.26622305,259.7179,08/31.0/2022,2000,g 10.5,4.0
# From MPC 74637
P/2010 H5 (Scotti),e,14.0574,24.7938,174.7859,7.170173,0.0513345,0.15252140,233.4547,08/31.0/2022,2000,g 13.0,2.0
# From MPC 98558
P/2010 J3 (McMillan),e,13.2677,106.4618,157.5835,8.979616,0.0366284,0.72570012,160.7298,08/31.0/2022,2000,g 11.0,4.0
# From MPC 84315
P/2010 JC81 (WISE),e,38.8176,30.8671,12.4258,8.106171,0.0427052,0.77782503,177.0844,08/31.0/2022,2000,g  9.0,4.0
# From MPC 74248
P/2010 T2 (PANSTARRS),e,7.8870,58.5734,352.7178,5.566182,0.0750530,0.32321573,317.7129,08/31.0/2022,2000,g 11.5,4.0
# From MPC 98558
P/2010 TO20 (LINEAR-Grauer),e,2.4787,43.2847,267.4298,5.832971,0.0699632,0.05563719,353.8060,08/31.0/2022,2000,g  9.0,4.0
# From MPC 82316
P/2010 U1 (Boattini),e,8.2197,280.6822,86.2247,6.502491,0.0594408,0.24910888,272.8184,08/31.0/2022,2000,g  9.5,4.0
# From MPEC 2022-OB6
C/2010 U3 (Boattini),e,55.5525,42.9962,88.0405,2482,0.0000080,0.99659835,0.0000,02/25.2517/2019,2000,g  1.0,4.0
# From MPC 79021
P/2010 UH55 (Spacewatch),e,8.0384,232.9077,225.1439,6.654620,0.0574142,0.56366326,239.1901,08/31.0/2022,2000,g 11.0,4.0
# From MPC 75009
P/2010 WK (LINEAR),e,11.4016,11.3341,40.9767,5.762338,0.0712535,0.69045891,310.8044,08/31.0/2022,2000,g 14.5,2.0
# From MPC 84021
P/2011 C2 (Gibbs),e,10.8871,12.1205,160.5475,7.412616,0.0488368,0.26910537,190.8672,08/31.0/2022,2000,g  9.0,4.0
# From MPC 79866
P/2011 FR143 (Lemmon),e,15.9756,190.9491,349.9511,6.863145,0.0548175,0.45058725,230.8509,08/31.0/2022,2000,g 14.0,2.0
# From MPC 82317
P/2011 JB15 (Spacewatch-Boattini),e,19.1469,153.5854,111.0596,7.365272,0.0493084,0.31614135,191.2306,08/31.0/2022,2000,g  9.0,4.0
# From MPC 87913
P/2011 N1 (ASH),e,35.7622,77.5788,330.3790,6.245120,0.0631528,0.54493513,236.9929,08/31.0/2022,2000,g 11.5,4.0
# From MPC 75714
P/2011 NO1 (Elenin),e,15.2446,295.8265,263.7121,5.531066,0.0757689,0.77457487,321.8844,08/31.0/2022,2000,g 15.0,4.0
# From MPEC 2022-ED3
P/2011 P1 (McNaught),e,5.6610,4.2315,349.1261,7.459628,0.0483758,0.32765644,213.5041,08/31.0/2022,2000,g  9.0,4.0
# From MPEC 2022-HC2
P/2011 S1 (Gibbs),e,2.6872,218.8323,192.4770,8.583029,0.0391961,0.20142457,115.1856,08/31.0/2022,2000,g  8.0,4.0
# From MPC 79022
P/2011 UA134 (Spacewatch-PANSTARRS),e,10.4404,40.3995,32.4010,5.609499,0.0741853,0.62972510,293.1519,08/31.0/2022,2000,g 17.5,4.0
# From MPC 77406
P/2011 V1 (Boattini),e,7.3749,46.7870,269.3740,3.856989,0.1301162,0.55017697,185.8895,08/31.0/2022,2000,g 15.5,4.0
# From MPC 82718
P/2011 W1 (PANSTARRS),e,3.7186,161.7846,282.7713,4.665488,0.0978044,0.28795146,19.9685,08/31.0/2022,2000,g 11.5,4.0
# From MPC 79342
P/2011 Y2 (Boattini),e,6.3767,309.3346,131.9403,6.238344,0.0632558,0.71018146,242.3878,08/31.0/2022,2000,g 15.0,4.0
# From MPEC 2022-K19
P/2012 B1 (PANSTARRS),e,7.6101,36.2165,162.4062,6.531660,0.0590430,0.40894745,197.0690,08/31.0/2022,2000,g  9.0,4.0
# From MPC 78590
P/2012 C3 (PANSTARRS),e,9.0920,135.3677,344.9542,9.748681,0.0323806,0.63011148,359.9758,10/06.0/2011,2000,g 13.0,4.0
# From MPC 84931
